PROBA-1                 
1 26958U 01049B   26062.18391594  .00002011  00000+0  13415-3 0  9990
2 26958  97.9622  67.0378 0057044 120.3799 240.3084 15.06979529327656
CUTE-1 (CO-55)          
1 27844U 03031E   26061.96016478  .00000415  00000+0  19885-3 0  9991
2 27844  98.6778  71.8426 0010458 130.0831 230.1266 14.24259384176550
CUBESAT XI-IV (CO-57)   
1 27848U 03031J   26061.96597561  .00000349  00000+0  17234-3 0  9994
2 27848  98.6808  71.6462 0010091 146.6500 213.5316 14.23555571176260
APRIZESAT 4             
1 35684U 09041D   26062.18062276  .00001031  00000+0  12998-3 0  9994
2 35684  98.1499 135.3688 0042311 306.4253  53.3062 14.83693098895648
APRIZESAT 3             
1 35686U 09041F   26061.95526449  .00002857  00000+0  25136-3 0  9992
2 35686  98.1882 210.2122 0063225  58.7086 302.0304 14.95865535900493
PROBA-2                 
1 36037U 09059B   26062.11735304  .00000367  00000+0  96033-4 0  9992
2 36037  98.2426 246.9424 0012093 246.1125 113.8806 14.54785415866101
APRIZESAT 5             
1 37792U 11044E   26061.79598053  .00001841  00000+0  24071-3 0  9999
2 37792  98.2401 351.8789 0052252 346.8979  13.0872 14.80829959783045
APRIZESAT 6             
1 37793U 11044F   26061.70533803  .00001149  00000+0  16931-3 0  9990
2 37793  98.2424 330.0133 0044532  67.2556 346.7978 14.76733859781432
PROBA-V                 
1 39159U 13021A   26061.91802132  .00000087  00000+0  56393-4 0  9999
2 39159  98.3495  45.8231 0005382  85.3518 274.8276 14.23571497665992
APRIZESAT 7             
1 39416U 13066A   26061.88117962  .00001972  00000+0  20166-3 0  9992
2 39416  97.7587  16.7287 0035282 201.5617 158.4118 14.91254208665383
APRIZESAT 8             
1 39425U 13066K   26061.92735978  .00001690  00000+0  18979-3 0  9996
2 39425  97.8109  10.9696 0044605 276.0047  83.6087 14.87398939663878
BUGSAT-1 (TITA)         
1 40014U 14033E   26062.22937122  .00007761  00000+0  42236-3 0  9994
2 40014  98.0449 148.6867 0028928 180.2095 179.9128 15.14396231639795
SAUDISAT 4              
1 40016U 14033G   26061.93443309  .00001040  00000+0  14388-3 0  9993
2 40016  97.7398 211.8519 0046090  60.2096 300.3688 14.79374136630366
APRIZESAT 9             
1 40018U 14033J   26062.18387731  .00001292  00000+0  19724-3 0  9997
2 40018  97.8869 198.0894 0066387 180.0089 180.1130 14.74054906627949
APRIZESAT 10            
1 40019U 14033K   26061.93164360  .00000949  00000+0  15700-3 0  9999
2 40019  97.9468 191.3759 0077724 252.8007 106.4681 14.70736675626630
TECHDEMOSAT-1 (TDS-1)   
1 40076U 14037H   26061.90506637  .00012423  00000+0  73946-3 0  9996
2 40076  98.3758  43.7723 0004654 269.0421  91.0273 15.11386629632160
TECHNOSAT               
1 42829U 17042E   26061.97574667  .00004977  00000+0  36086-3 0  9997
2 42829  97.4141 223.8060 0019585  96.7816 263.5640 15.04213177470737
