[{"OBJECT_NAME":"PROBA-1","OBJECT_ID":"2001-049B","EPOCH":"2026-03-03T04:24:50.337216","MEAN_MOTION":15.06979529,"ECCENTRICITY":0.0057044,"INCLINATION":97.9622,"RA_OF_ASC_NODE":67.0378,"ARG_OF_PERICENTER":120.3799,"MEAN_ANOMALY":240.3084,"EPHEMERIS_TYPE":0,"CLASSIFICATION_TYPE":"U","NORAD_CAT_ID":26958,"ELEMENT_SET_NO":999,"REV_AT_EPOCH":32765,"BSTAR":0.00013415,"MEAN_MOTION_DOT":2.011e-5,"MEAN_MOTION_DDOT":0},{"OBJECT_NAME":"CUTE-1 (CO-55)","OBJECT_ID":"2003-031E","EPOCH":"2026-03-02T23:02:38.236992","MEAN_MOTION":14.24259384,"ECCENTRICITY":0.0010458,"INCLINATION":98.6778,"RA_OF_ASC_NODE":71.8426,"ARG_OF_PERICENTER":130.0831,"MEAN_ANOMALY":230.1266,"EPHEMERIS_TYPE":0,"CLASSIFICATION_TYPE":"U","NORAD_CAT_ID":27844,"ELEMENT_SET_NO":999,"REV_AT_EPOCH":17655,"BSTAR":0.00019885,"MEAN_MOTION_DOT":4.15e-6,"MEAN_MOTION_DDOT":0},{"OBJECT_NAME":"CUBESAT XI-IV (CO-57)","OBJECT_ID":"2003-031J","EPOCH":"2026-03-02T23:11:00.292704","MEAN_MOTION":14.23555571,"ECCENTRICITY":0.0010091,"INCLINATION":98.6808,"RA_OF_ASC_NODE":71.6462,"ARG_OF_PERICENTER":146.65,"MEAN_ANOMALY":213.5316,"EPHEMERIS_TYPE":0,"CLASSIFICATION_TYPE":"U","NORAD_CAT_ID":27848,"ELEMENT_SET_NO":999,"REV_AT_EPOCH":17626,"BSTAR":0.00017234,"MEAN_MOTION_DOT":3.49e-6,"MEAN_MOTION_DDOT":0},{"OBJECT_NAME":"APRIZESAT 4","OBJECT_ID":"2009-041D","EPOCH":"2026-03-03T04:20:05.806464","MEAN_MOTION":14.83693098,"ECCENTRICITY":0.0042311,"INCLINATION":98.1499,"RA_OF_ASC_NODE":135.3688,"ARG_OF_PERICENTER":306.4253,"MEAN_ANOMALY":53.3062,"EPHEMERIS_TYPE":0,"CLASSIFICATION_TYPE":"U","NORAD_CAT_ID":35684,"ELEMENT_SET_NO":999,"REV_AT_EPOCH":89564,"BSTAR":0.00012998,"MEAN_MOTION_DOT":1.031e-5,"MEAN_MOTION_DDOT":0},{"OBJECT_NAME":"APRIZESAT 3","OBJECT_ID":"2009-041F","EPOCH":"2026-03-02T22:55:34.851936","MEAN_MOTION":14.95865535,"ECCENTRICITY":0.0063225,"INCLINATION":98.1882,"RA_OF_ASC_NODE":210.2122,"ARG_OF_PERICENTER":58.7086,"MEAN_ANOMALY":302.0304,"EPHEMERIS_TYPE":0,"CLASSIFICATION_TYPE":"U","NORAD_CAT_ID":35686,"ELEMENT_SET_NO":999,"REV_AT_EPOCH":90049,"BSTAR":0.00025136,"MEAN_MOTION_DOT":2.857e-5,"MEAN_MOTION_DDOT":0},{"OBJECT_NAME":"PROBA-2","OBJECT_ID":"2009-059B","EPOCH":"2026-03-03T02:48:59.302656","MEAN_MOTION":14.54785415,"ECCENTRICITY":0.0012093,"INCLINATION":98.2426,"RA_OF_ASC_NODE":246.9424,"ARG_OF_PERICENTER":246.1125,"MEAN_ANOMALY":113.8806,"EPHEMERIS_TYPE":0,"CLASSIFICATION_TYPE":"U","NORAD_CAT_ID":36037,"ELEMENT_SET_NO":999,"REV_AT_EPOCH":86610,"BSTAR":9.6033e-5,"MEAN_MOTION_DOT":3.67e-6,"MEAN_MOTION_DDOT":0},{"OBJECT_NAME":"APRIZESAT 5","OBJECT_ID":"2011-044E","EPOCH":"2026-03-02T19:06:12.717792","MEAN_MOTION":14.80829959,"ECCENTRICITY":0.00522528,"INCLINATION":98.2401,"RA_OF_ASC_NODE":351.8789,"ARG_OF_PERICENTER":346.8979,"MEAN_ANOMALY":13.0872,"EPHEMERIS_TYPE":0,"CLASSIFICATION_TYPE":"U","NORAD_CAT_ID":37792,"ELEMENT_SET_NO":999,"REV_AT_EPOCH":78304,"BSTAR":0.00024070859,"MEAN_MOTION_DOT":1.841e-5,"MEAN_MOTION_DDOT":0},{"OBJECT_NAME":"APRIZESAT 6","OBJECT_ID":"2011-044F","EPOCH":"2026-03-02T16:55:41.205792","MEAN_MOTION":14.76733859,"ECCENTRICITY":0.00445321,"INCLINATION":98.2424,"RA_OF_ASC_NODE":330.0133,"ARG_OF_PERICENTER":67.2556,"MEAN_ANOMALY":346.7978,"EPHEMERIS_TYPE":0,"CLASSIFICATION_TYPE":"U","NORAD_CAT_ID":37793,"ELEMENT_SET_NO":999,"REV_AT_EPOCH":78143,"BSTAR":0.00016930863,"MEAN_MOTION_DOT":1.149e-5,"MEAN_MOTION_DDOT":0},{"OBJECT_NAME":"PROBA-V","OBJECT_ID":"2013-021A","EPOCH":"2026-03-02T22:01:57.042048","MEAN_MOTION":14.23571497,"ECCENTRICITY":0.0005382,"INCLINATION":98.3495,"RA_OF_ASC_NODE":45.8231,"ARG_OF_PERICENTER":85.3518,"MEAN_ANOMALY":274.8276,"EPHEMERIS_TYPE":0,"CLASSIFICATION_TYPE":"U","NORAD_CAT_ID":39159,"ELEMENT_SET_NO":999,"REV_AT_EPOCH":66599,"BSTAR":5.6393e-5,"MEAN_MOTION_DOT":8.7e-7,"MEAN_MOTION_DDOT":0},{"OBJECT_NAME":"APRIZESAT 7","OBJECT_ID":"2013-066A","EPOCH":"2026-03-02T21:08:53.919168","MEAN_MOTION":14.91254208,"ECCENTRICITY":0.0035282,"INCLINATION":97.7587,"RA_OF_ASC_NODE":16.7287,"ARG_OF_PERICENTER":201.5617,"MEAN_ANOMALY":158.4118,"EPHEMERIS_TYPE":0,"CLASSIFICATION_TYPE":"U","NORAD_CAT_ID":39416,"ELEMENT_SET_NO":999,"REV_AT_EPOCH":66538,"BSTAR":0.00020166,"MEAN_MOTION_DOT":1.972e-5,"MEAN_MOTION_DDOT":0},{"OBJECT_NAME":"APRIZESAT 8","OBJECT_ID":"2013-066K","EPOCH":"2026-03-02T22:15:23.884992","MEAN_MOTION":14.87398939,"ECCENTRICITY":0.0044605,"INCLINATION":97.8109,"RA_OF_ASC_NODE":10.9696,"ARG_OF_PERICENTER":276.0047,"MEAN_ANOMALY":83.6087,"EPHEMERIS_TYPE":0,"CLASSIFICATION_TYPE":"U","NORAD_CAT_ID":39425,"ELEMENT_SET_NO":999,"REV_AT_EPOCH":66387,"BSTAR":0.00018979,"MEAN_MOTION_DOT":1.69e-5,"MEAN_MOTION_DDOT":0},{"OBJECT_NAME":"BUGSAT-1 (TITA)","OBJECT_ID":"2014-033E","EPOCH":"2026-03-03T05:30:17.673408","MEAN_MOTION":15.14396231,"ECCENTRICITY":0.0028928,"INCLINATION":98.0449,"RA_OF_ASC_NODE":148.6867,"ARG_OF_PERICENTER":180.2095,"MEAN_ANOMALY":179.9128,"EPHEMERIS_TYPE":0,"CLASSIFICATION_TYPE":"U","NORAD_CAT_ID":40014,"ELEMENT_SET_NO":999,"REV_AT_EPOCH":63979,"BSTAR":0.00042236,"MEAN_MOTION_DOT":7.761e-5,"MEAN_MOTION_DDOT":0},{"OBJECT_NAME":"SAUDISAT 4","OBJECT_ID":"2014-033G","EPOCH":"2026-03-02T22:25:35.018976","MEAN_MOTION":14.79374136,"ECCENTRICITY":0.004609,"INCLINATION":97.7398,"RA_OF_ASC_NODE":211.8519,"ARG_OF_PERICENTER":60.2096,"MEAN_ANOMALY":300.3688,"EPHEMERIS_TYPE":0,"CLASSIFICATION_TYPE":"U","NORAD_CAT_ID":40016,"ELEMENT_SET_NO":999,"REV_AT_EPOCH":63036,"BSTAR":0.00014388,"MEAN_MOTION_DOT":1.04e-5,"MEAN_MOTION_DDOT":0},{"OBJECT_NAME":"APRIZESAT 9","OBJECT_ID":"2014-033J","EPOCH":"2026-03-03T04:24:46.999584","MEAN_MOTION":14.74054906,"ECCENTRICITY":0.0066387,"INCLINATION":97.8869,"RA_OF_ASC_NODE":198.0894,"ARG_OF_PERICENTER":180.0089,"MEAN_ANOMALY":180.113,"EPHEMERIS_TYPE":0,"CLASSIFICATION_TYPE":"U","NORAD_CAT_ID":40018,"ELEMENT_SET_NO":999,"REV_AT_EPOCH":62794,"BSTAR":0.00019724,"MEAN_MOTION_DOT":1.292e-5,"MEAN_MOTION_DDOT":0},{"OBJECT_NAME":"APRIZESAT 10","OBJECT_ID":"2014-033K","EPOCH":"2026-03-02T22:21:34.007040","MEAN_MOTION":14.70736675,"ECCENTRICITY":0.0077724,"INCLINATION":97.9468,"RA_OF_ASC_NODE":191.3759,"ARG_OF_PERICENTER":252.8007,"MEAN_ANOMALY":106.4681,"EPHEMERIS_TYPE":0,"CLASSIFICATION_TYPE":"U","NORAD_CAT_ID":40019,"ELEMENT_SET_NO":999,"REV_AT_EPOCH":62663,"BSTAR":0.000157,"MEAN_MOTION_DOT":9.49e-6,"MEAN_MOTION_DDOT":0},{"OBJECT_NAME":"TECHDEMOSAT-1 (TDS-1)","OBJECT_ID":"2014-037H","EPOCH":"2026-03-02T21:43:17.734368","MEAN_MOTION":15.11386629,"ECCENTRICITY":0.0004654,"INCLINATION":98.3758,"RA_OF_ASC_NODE":43.7723,"ARG_OF_PERICENTER":269.0421,"MEAN_ANOMALY":91.0273,"EPHEMERIS_TYPE":0,"CLASSIFICATION_TYPE":"U","NORAD_CAT_ID":40076,"ELEMENT_SET_NO":999,"REV_AT_EPOCH":63216,"BSTAR":0.00073946,"MEAN_MOTION_DOT":0.00012423,"MEAN_MOTION_DDOT":0},{"OBJECT_NAME":"TECHNOSAT","OBJECT_ID":"2017-042E","EPOCH":"2026-03-02T23:25:04.512288","MEAN_MOTION":15.04213177,"ECCENTRICITY":0.0019585,"INCLINATION":97.4141,"RA_OF_ASC_NODE":223.806,"ARG_OF_PERICENTER":96.7816,"MEAN_ANOMALY":263.564,"EPHEMERIS_TYPE":0,"CLASSIFICATION_TYPE":"U","NORAD_CAT_ID":42829,"ELEMENT_SET_NO":999,"REV_AT_EPOCH":47073,"BSTAR":0.00036086,"MEAN_MOTION_DOT":4.977e-5,"MEAN_MOTION_DDOT":0}]
